NORAD_CAT_ID,OBJECT_NAME,OBJECT_TYPE,EPOCH,MEAN_MOTION,ECCENTRICITY,INCLINATION,RA_OF_ASC_NODE,ARG_OF_PERICENTER,MEAN_ANOMALY,BSTAR,MEAN_MOTION_DOT,MEAN_MOTION_DDOT,TLE_LINE0,TLE_LINE1,TLE_LINE2,SEMIMAJOR_AXIS,PERIOD,APOGEE,PERIGEE,DECAYED
56472.0,STARLINK-5038,PAYLOAD,2024-05-22 21:14:38,14.98331991,0.0003001,70.0019,338.0738,271.2778,88.8037,4.3897e-05,4.31e-06,0.0,0 STARLINK-5038,1 56472U 23064AA  24143.88516653  .00000431  00000-0  43897-4 0  9998,2 56472  70.0019 338.0738 0003001 271.2778  88.8037 14.98331991 57861,6950.187,96.107,574.137,569.966,0.0
56472.0,STARLINK-5038,PAYLOAD,2024-05-23 14:52:06,14.98334302,0.000308,70.0014,336.2214,270.7364,89.3442,0.00014059,1.585e-05,0.0,0 STARLINK-5038,1 56472U 23064AA  24144.61952453  .00001585  00000-0  14059-3 0  9990,2 56472  70.0014 336.2214 0003080 270.7364  89.3442 14.98334302 57615,6950.18,96.107,574.185,569.904,0.0
56472.0,STARLINK-5038,PAYLOAD,2024-05-23 21:16:39,14.98335323,0.0003092,70.0003,335.5482,270.0417,90.0387,0.00014171,1.598e-05,0.0,0 STARLINK-5038,1 56472U 23064AA  24144.88656361  .00001598  00000-0  14171-3 0  9997,2 56472  70.0003 335.5482 0003092 270.0417  90.0387 14.98335323 57652,6950.176,96.107,574.19,569.892,0.0
56472.0,STARLINK-5038,PAYLOAD,2024-05-23 22:52:47,14.98335914,0.0003096,70.0003,335.3799,269.9702,90.1103,0.00014281,1.612e-05,0.0,0 STARLINK-5038,1 56472U 23064AA  24144.95332292  .00001612  00000-0  14281-3 0  9998,2 56472  70.0003 335.3799 0003096 269.9702  90.1103 14.98335914 58024,6950.175,96.107,574.191,569.888,0.0
56472.0,STARLINK-5038,PAYLOAD,2024-05-24 13:18:00,14.98331582,0.0002929,70.0005,333.8649,268.4089,91.6735,7.642e-05,8.19e-06,0.0,0 STARLINK-5038,1 56472U 23064AA  24145.55416707  .00000819  00000-0  76420-4 0  9991,2 56472  70.0005 333.8649 0002929 268.4089  91.6735 14.98331582 58113,6950.188,96.107,574.089,570.017,0.0
56472.0,STARLINK-5038,PAYLOAD,2024-05-24 21:18:40,14.98332601,0.000293,70.0003,333.0235,265.4716,94.6109,5.7684e-05,5.95e-06,0.0,0 STARLINK-5038,1 56472U 23064AA  24145.88796520  .00000595  00000-0  57684-4 0  9993,2 56472  70.0003 333.0235 0002930 265.4716  94.6109 14.98332601 57806,6950.185,96.107,574.086,570.013,0.0
56472.0,STARLINK-5038,PAYLOAD,2024-05-25 13:20:00,14.98331828,0.000284,70.0004,331.3401,261.4008,98.6829,5.8444e-05,6.04e-06,0.0,0 STARLINK-5038,1 56472U 23064AA  24146.55556431  .00000604  00000-0  58444-4 0  9999,2 56472  70.0004 331.3401 0002840 261.4008  98.6829 14.98331828 58267,6950.187,96.107,574.026,570.078,0.0
56472.0,STARLINK-5038,PAYLOAD,2024-05-25 14:56:08,14.98331624,0.0002853,70.0004,331.1719,260.8246,99.259,5.2888e-05,5.38e-06,0.0,0 STARLINK-5038,1 56472U 23064AA  24146.62232438  .00000538  00000-0  52888-4 0  9997,2 56472  70.0004 331.1719 0002853 260.8246  99.2590 14.98331624 57915,6950.188,96.107,574.036,570.07,0.0
56472.0,STARLINK-5038,PAYLOAD,2024-05-26 13:22:01,14.9832974,0.0003021,69.9998,328.8148,255.684,104.3984,7.0762e-05,7.51e-06,0.0,0 STARLINK-5038,1 56472U 23064AA  24147.55696378  .00000751  00000-0  70762-4 0  9995,2 56472  69.9998 328.8148 0003021 255.6840 104.3984 14.98329740 58410,6950.194,96.107,574.158,569.959,0.0
56472.0,STARLINK-5038,PAYLOAD,2024-05-26 14:58:09,14.98329532,0.0003023,69.9998,328.6463,255.5763,104.5061,6.8186e-05,7.21e-06,0.0,0 STARLINK-5038,1 56472U 23064AA  24147.62372394  .00000721  00000-0  68186-4 0  9996,2 56472  69.9998 328.6463 0003023 255.5763 104.5061 14.98329532 58061,6950.194,96.107,574.16,569.958,0.0
56472.0,STARLINK-5038,PAYLOAD,2024-05-26 21:22:41,14.98332224,0.0003248,69.9995,327.9739,262.1456,97.9335,8.005e-05,8.62e-06,0.0,0 STARLINK-5038,1 56472U 23064AA  24147.89076281  .00000862  00000-0  80050-4 0  9991,2 56472  69.9995 327.9739 0003248 262.1456  97.9335 14.98332224 58104,6950.186,96.107,574.308,569.794,0.0
56472.0,STARLINK-5038,PAYLOAD,2024-05-27 13:24:02,14.98330716,0.0003195,69.9999,326.2916,269.0885,90.9908,2.9924e-05,2.64e-06,0.0,0 STARLINK-5038,1 56472U 23064AA  24148.55836404  .00000264  00000-0  29924-4 0  9995,2 56472  69.9999 326.2916 0003195 269.0885  90.9908 14.98330716 58563,6950.191,96.107,574.276,569.835,0.0
56472.0,STARLINK-5038,PAYLOAD,2024-05-27 21:24:43,14.98328787,0.0003023,70.0001,325.4486,264.936,95.1454,2.8389e-05,2.46e-06,0.0,0 STARLINK-5038,1 56472U 23064AA  24148.89216508  .00000246  00000-0  28389-4 0  9993,2 56472  70.0001 325.4486 0003023 264.9360  95.1454 14.98328787 58259,6950.197,96.107,574.163,569.961,0.0
56472.0,STARLINK-5038,PAYLOAD,2024-05-28 13:26:03,14.98333145,0.0003314,69.9997,323.7654,271.743,88.3349,6.4406e-05,6.76e-06,0.0,0 STARLINK-5038,1 56472U 23064AA  24149.55976075  .00000676  00000-0  64406-4 0  9996,2 56472  69.9997 323.7654 0003314 271.7430  88.3349 14.98333145 58717,6950.183,96.107,574.351,569.745,0.0
56472.0,STARLINK-5038,PAYLOAD,2024-05-28 19:50:35,14.98334928,0.0003082,70.0,323.0919,266.9429,93.1378,6.944e-05,7.36e-06,0.0,0 STARLINK-5038,1 56472U 23064AA  24149.82679877  .00000736  00000-0  69440-4 0  9996,2 56472  70.0000 323.0919 0003082 266.9429  93.1378 14.98334928 58398,6950.178,96.107,574.185,569.901,0.0
56472.0,STARLINK-5038,PAYLOAD,2024-05-29 13:28:04,14.9832989,0.0003009,70.0002,321.2402,265.9165,94.165,6.6782e-05,7.04e-06,0.0,0 STARLINK-5038,1 56472U 23064AA  24150.56116114  .00000704  00000-0  66782-4 0  9990,2 56472  70.0002 321.2402 0003009 265.9165  94.1650 14.98329890 58860,6950.193,96.107,574.15,569.967,0.0
56472.0,STARLINK-5038,PAYLOAD,2024-05-29 21:28:44,14.98330943,0.0003015,70.0002,320.3987,266.2938,93.7876,7.3586e-05,7.85e-06,0.0,0 STARLINK-5038,1 56472U 23064AA  24150.89496083  .00000785  00000-0  73586-4 0  9991,2 56472  70.0002 320.3987 0003015 266.2938  93.7876 14.98330943 58559,6950.19,96.107,574.15,569.959,0.0
56472.0,STARLINK-5038,PAYLOAD,2024-05-30 13:30:04,14.98337786,0.0003153,70.0001,318.7147,273.8047,86.2752,6.3168e-05,6.61e-06,0.0,0 STARLINK-5038,1 56472U 23064AA  24151.56255563  .00000661  00000-0  63168-4 0  9990,2 56472  70.0001 318.7147 0003153 273.8047  86.2752 14.98337786 59019,6950.169,96.106,574.225,569.842,0.0
56472.0,STARLINK-5038,PAYLOAD,2024-05-30 21:30:44,14.98341828,0.0003118,70.0001,317.873,273.684,86.3962,0.00010593,1.172e-05,0.0,0 STARLINK-5038,1 56472U 23064AA  24151.89635035  .00001172  00000-0  10593-3 0  9993,2 56472  70.0001 317.8730 0003118 273.6840  86.3962 14.98341828 58708,6950.156,96.106,574.188,569.854,0.0
56472.0,STARLINK-5038,PAYLOAD,2024-05-31 13:32:05,14.98330838,0.0003045,70.0003,316.19,273.5507,86.5304,3.4792e-05,3.22e-06,0.0,0 STARLINK-5038,1 56472U 23064AA  24152.56395727  .00000322  00000-0  34792-4 0  9993,2 56472  70.0003 316.1900 0003045 273.5507  86.5304 14.98330838 59161,6950.19,96.107,574.172,569.939,0.0
56472.0,STARLINK-5038,PAYLOAD,2024-05-31 19:56:38,14.98330616,0.0002948,70.0003,315.5164,268.1914,91.8908,1.4085e-05,7.5e-07,0.0,0 STARLINK-5038,1 56472U 23064AA  24152.83099680  .00000075  00000-0  14085-4 0  9990,2 56472  70.0003 315.5164 0002948 268.1914  91.8908 14.98330616 58846,6950.191,96.107,574.105,570.007,0.0
56472.0,STARLINK-5038,PAYLOAD,2024-06-01 13:34:08,14.98313837,0.0002509,69.9999,313.6643,273.8275,86.2597,-0.00018813,-2.336e-05,0.0,0 STARLINK-5038,1 56472U 23064AA  24153.56537936 -.00002336  00000-0 -18813-3 0  9998,2 56472  69.9999 313.6643 0002509 273.8275  86.2597 14.98313837 59315,6950.243,96.108,573.852,570.364,0.0
56472.0,STARLINK-5038,PAYLOAD,2024-06-01 19:58:41,14.98303842,0.0002796,70.0008,312.9928,266.511,93.5729,-0.00025298,-3.108e-05,0.0,0 STARLINK-5038,1 56472U 23064AA  24153.83243022 -.00003108  00000-0 -25298-3 0  9991,2 56472  70.0008 312.9928 0002796 266.5110  93.5729 14.98303842 59359,6950.274,96.109,574.082,570.195,0.0
56472.0,STARLINK-5038,PAYLOAD,2024-06-02 03:59:21,14.98312608,0.0002415,70.0013,312.1479,269.0114,91.0768,-0.00012472,-1.58e-05,0.0,0 STARLINK-5038,1 56472U 23064AA  24154.16622677 -.00001580  00000-0 -12472-3 0  9997,2 56472  70.0013 312.1479 0002415 269.0114  91.0768 14.98312608 59400,6950.247,96.108,573.79,570.433,0.0
56472.0,STARLINK-5038,PAYLOAD,2024-06-02 12:00:01,14.9832788,0.0003262,69.9997,311.3071,272.4806,87.598,8.3975e-05,9.09e-06,0.0,0 STARLINK-5038,1 56472U 23064AA  24154.50001190  .00000909  00000-0  83975-4 0  9995,2 56472  69.9997 311.3071 0003262 272.4806  87.5980 14.98327880 59453,6950.199,96.107,574.332,569.797,0.0
56472.0,STARLINK-5038,PAYLOAD,2024-06-03 12:02:01,14.98331033,0.0003475,69.9993,308.7819,272.5372,87.5389,0.00052808,6.214e-05,0.0,0 STARLINK-5038,1 56472U 23064AA  24155.50140165  .00006214  00000-0  52808-3 0  9997,2 56472  69.9993 308.7819 0003475 272.5372  87.5389 14.98331033 59609,6950.19,96.107,574.47,569.64,0.0
56472.0,STARLINK-5038,PAYLOAD,2024-06-03 20:02:40,14.98345332,0.0003435,69.9994,307.9408,273.5236,86.553,0.00056993,6.717e-05,0.0,0 STARLINK-5038,1 56472U 23064AA  24155.83519336  .00006717  00000-0  56993-3 0  9990,2 56472  69.9994 307.9408 0003435 273.5236  86.5530 14.98345332 59290,6950.145,96.106,574.398,569.623,0.0
56472.0,STARLINK-5038,PAYLOAD,2024-06-04 10:27:53,14.98347962,0.0003006,69.9992,306.4256,274.188,85.8936,0.00016836,1.917e-05,0.0,0 STARLINK-5038,1 56472U 23064AA  24156.43603834  .00001917  00000-0  16836-3 0  9993,2 56472  69.9992 306.4256 0003006 274.1880  85.8936 14.98347962 59382,6950.137,96.106,574.092,569.913,0.0
56472.0,STARLINK-5038,PAYLOAD,2024-06-04 20:04:42,14.98346706,0.0003203,69.9999,305.416,274.5423,85.5371,2.8787e-05,2.51e-06,0.0,0 STARLINK-5038,1 56472U 23064AA  24156.83659754  .00000251  00000-0  28787-4 0  9998,2 56472  69.9999 305.4160 0003203 274.5423  85.5371 14.98346706 59800,6950.141,96.106,574.232,569.78,0.0
56472.0,STARLINK-5038,PAYLOAD,2024-06-05 12:06:02,14.98339319,0.0003173,69.9979,303.7294,263.3997,96.6801,-0.00015124,-1.898e-05,0.0,0 STARLINK-5038,1 56472U 23064AA  24157.50419942 -.00001898  00000-0 -15124-3 0  9996,2 56472  69.9979 303.7294 0003173 263.3997  96.6801 14.98339319 59909,6950.164,96.106,574.234,569.824,0.0
